J60S00W 17.0   0.15 K145N 255.86615  114.94248  267.69489    1.06877  0.2005979  0.23425776   2.6061939  1 MPO157334    75   5 1960-2009 0.43 M-v 38h MPCADO     0400          1960 SW            20090421
